COSMOS 2251 DEB         
1 33909U 93036DN  17345.76813884  .00013041  00000-0  15287-2 0  9994
2 33909  74.0594 191.3446 0041157 167.5307 192.6901 14.84413900464084
